NORAD_CAT_ID,OBJECT_NAME,OBJECT_TYPE,EPOCH,MEAN_MOTION,ECCENTRICITY,INCLINATION,RA_OF_ASC_NODE,ARG_OF_PERICENTER,MEAN_ANOMALY,BSTAR,MEAN_MOTION_DOT,MEAN_MOTION_DDOT,TLE_LINE0,TLE_LINE1,TLE_LINE2,SEMIMAJOR_AXIS,PERIOD,APOGEE,PERIGEE,DECAYED
49178.0,STARLINK-3086,PAYLOAD,2021-12-16 14:00:01,15.16099333,0.0003213,69.9999,228.2162,280.4583,293.2519,-0.036929,-0.00667797,0.0,0 STARLINK-3086,1 49178U 21082BA  21350.58334491 -.00667797  00000-0 -36929-1 0  9994,2 49178  69.9999 228.2162 0003213 280.4583 293.2519 15.16099333  3637,6895.78,94.981,519.861,515.429,0.0
49178.0,STARLINK-3086,PAYLOAD,2021-12-16 22:00:01,15.15628719,0.0003266,70.0001,227.3518,284.7658,307.5166,-0.037123,-0.00662701,0.0,0 STARLINK-3086,1 49178U 21082BA  21350.91668981 -.00662701  00000-0 -37123-1 0  9992,2 49178  70.0001 227.3518 0003266 284.7658 307.5166 15.15628719  3628,6897.206999999999,95.01,521.325,516.82,0.0
49178.0,STARLINK-3086,PAYLOAD,2021-12-17 04:00:00,15.15278246,0.0003213,69.9998,226.7038,275.5008,240.231,-0.037435,-0.00661703,0.0,0 STARLINK-3086,1 49178U 21082BA  21351.16667824 -.00661703  00000-0 -37435-1 0  9992,2 49178  69.9998 226.7038 0003213 275.5008 240.2310 15.15278246 15925,6898.271,95.032,522.352,517.92,0.0
49178.0,STARLINK-3086,PAYLOAD,2021-12-17 04:54:34,15.16450829,0.0003507,69.9944,226.6195,283.6061,76.4716,-0.0098517,-0.00187381,0.0,0 STARLINK-3086,1 49178U 21082BA  21351.20456867 -.00187381  00000-0 -98517-2 0  9994,2 49178  69.9944 226.6195 0003507 283.6061  76.4716 15.16450829 15923,6894.714,94.959,518.997,514.1619999999998,0.0
49178.0,STARLINK-3086,PAYLOAD,2021-12-17 14:00:01,15.14696035,0.0003175,70.0,225.6249,274.5619,353.0532,-0.038349,-0.0066643999999999,0.0,0 STARLINK-3086,1 49178U 21082BA  21351.58335648 -.00666440  00000-0 -38349-1 0  9992,2 49178  70.0000 225.6249 0003175 274.5619 353.0532 15.14696035 15971,6900.0390000000025,95.069,524.094,519.7130000000002,0.0
49178.0,STARLINK-3086,PAYLOAD,2021-12-17 22:00:00,15.14226553,0.0003294,70.0001,224.7625,283.0061,1.3724,-0.038631,-0.00662744,0.0,0 STARLINK-3086,1 49178U 21082BA  21351.91667824 -.00662744  00000-0 -38631-1 0  9990,2 49178  70.0001 224.7625 0003294 283.0061   1.3724 15.14226553  3649,6901.465,95.098,525.6030000000002,521.056,0.0
49178.0,STARLINK-3086,PAYLOAD,2021-12-18 14:00:01,15.13292388,0.0003273999999999,70.0001,223.0394,276.4081,39.94,-0.039758,-0.0066426,0.0,0 STARLINK-3086,1 49178U 21082BA  21352.58334491 -.00664260  00000-0 -39758-1 0  9991,2 49178  70.0001 223.0394 0003274 276.4081  39.9400 15.13292388  3635,6904.305,95.157,528.43,523.909,0.0
49178.0,STARLINK-3086,PAYLOAD,2021-12-18 22:00:00,15.12824842,0.0003389,70.0,222.1788,284.133,47.359,-0.040249,-0.00663746,0.0,0 STARLINK-3086,1 49178U 21082BA  21352.91667824 -.00663746  00000-0 -40249-1 0  9992,2 49178  70.0000 222.1788 0003389 284.1330  47.3590 15.12824842 16172,6905.727,95.186,529.932,525.252,0.0
49178.0,STARLINK-3086,PAYLOAD,2021-12-18 22:08:14,15.13975952,0.0003447,69.9942,222.176,275.5815,84.4959,-0.010714,-0.00189922,0.0,0 STARLINK-3086,1 49178U 21082BA  21352.92239064 -.00189922  00000-0 -10714-1 0  9997,2 49178  69.9942 222.1760 0003447 275.5815  84.4959 15.13975952 16183,6902.226,95.114,526.47,521.712,0.0
49178.0,STARLINK-3086,PAYLOAD,2021-12-19 14:00:01,15.11889207,0.0003329,70.0001,220.4594,278.0161,82.0821,-0.041254,-0.00662809,0.0,0 STARLINK-3086,1 49178U 21082BA  21353.58334491 -.00662809  00000-0 -41254-1 0  9993,2 49178  70.0001 220.4594 0003329 278.0161  82.0821 15.11889207  3621,6908.576,95.245,532.741,528.141,0.0
49178.0,STARLINK-3086,PAYLOAD,2021-12-19 21:56:55,15.12767313,0.0002989,69.9947,219.6198,276.9711,83.1116,-0.010876,-0.00186452,0.0,0 STARLINK-3086,1 49178U 21082BA  21353.91453471 -.00186452  00000-0 -10876-1 0  9991,2 49178  69.9947 219.6198 0002989 276.9711  83.1116 15.12767313 16331,6905.901999999999,95.19,529.831,525.703,0.0
49178.0,STARLINK-3086,PAYLOAD,2021-12-20 06:00:00,15.10860367,0.0003446,69.999,218.7434,280.0154,106.4957,-0.033811,-0.00529988,0.0,0 STARLINK-3086,1 49178U 21082BA  21354.25001157 -.00529988  00000-0 -33811-1 0  9998,2 49178  69.9990 218.7434 0003446 280.0154 106.4957 15.10860367 16386,6911.712,95.31,535.9590000000002,531.195,0.0
49178.0,STARLINK-3086,PAYLOAD,2021-12-20 14:00:01,15.10486684,0.0003342,70.0001,217.8849,279.2119,119.5905,-0.04287,-0.00662475,0.0,0 STARLINK-3086,1 49178U 21082BA  21354.58334491 -.00662475  00000-0 -42870-1 0  9998,2 49178  70.0001 217.8849 0003342 279.2119 119.5905 15.10486684 16438,6912.852,95.334,537.0269999999998,532.406,0.0
49178.0,STARLINK-3086,PAYLOAD,2021-12-20 22:00:01,15.10021349,0.0003425,70.0,217.028,285.087,125.5578,-0.043684,-0.00666189,0.0,0 STARLINK-3086,1 49178U 21082BA  21354.91668981 -.00666189  00000-0 -43684-1 0  9999,2 49178  70.0000 217.0280 0003425 285.0870 125.5578 15.10021349  3622,6914.272,95.363,538.505,533.769,0.0
49178.0,STARLINK-3086,PAYLOAD,2021-12-21 14:00:01,15.08977671,0.0003512,69.9991,215.3173,283.5598,148.9572,-0.034338,-0.00512092,0.0,0 STARLINK-3086,1 49178U 21082BA  21355.58334491 -.00512092  00000-0 -34338-1 0  9998,2 49178  69.9991 215.3173 0003512 283.5598 148.9572 15.08977671 16584,6917.46,95.429,541.754,536.895,0.0
49178.0,STARLINK-3086,PAYLOAD,2021-12-21 22:00:00,15.08618871,0.0003386,70.0,214.461,285.5609,156.9977,-0.045404,-0.0066621,0.0,0 STARLINK-3086,1 49178U 21082BA  21355.91667824 -.00666210  00000-0 -45404-1 0  9992,2 49178  70.0000 214.4610 0003386 285.5609 156.9977 15.08618871 16636,6918.556,95.452,542.764,538.0790000000002,0.0
49178.0,STARLINK-3086,PAYLOAD,2021-12-22 14:00:01,15.07682413,0.0003377,70.0001,212.7527,285.8040000000001,175.2695,-0.04635,-0.00663107,0.0,0 STARLINK-3086,1 49178U 21082BA  21356.58334491 -.00663107  00000-0 -46350-1 0  9990,2 49178  70.0001 212.7527 0003377 285.8040 175.2695 15.07682413  3614,6921.420999999999,95.511,545.623,540.9490000000002,0.0
49178.0,STARLINK-3086,PAYLOAD,2021-12-22 22:00:00,15.07216119,0.0003335,70.0,211.8996,285.2567,184.2329,-0.047143,-0.00665758,0.0,0 STARLINK-3086,1 49178U 21082BA  21356.91667824 -.00665758  00000-0 -47143-1 0  9991,2 49178  70.0000 211.8996 0003335 285.2567 184.2329 15.07216119  3637,6922.848000000001,95.54,547.0219999999998,542.405,0.0
49178.0,STARLINK-3086,PAYLOAD,2021-12-23 06:00:00,15.0674848,0.0003225,69.9998,211.0469,279.5455,197.7999,-0.047712,-0.00665304,0.0,0 STARLINK-3086,1 49178U 21082BA  21357.25001157 -.00665304  00000-0 -47712-1 0  9999,2 49178  69.9998 211.0469 0003225 279.5455 197.7999 15.06748480 16835,6924.281,95.57,548.379,543.913,0.0
49178.0,STARLINK-3086,PAYLOAD,2021-12-23 14:00:01,15.06280269,0.0003341,70.0001,210.195,285.9491,198.6912,-0.048181,-0.00663506,0.0,0 STARLINK-3086,1 49178U 21082BA  21357.58334491 -.00663506  00000-0 -48181-1 0  9998,2 49178  70.0001 210.1950 0003341 285.9491 198.6912 15.06280269  3600,6925.715999999999,95.6,549.894,545.2669999999998,0.0
49178.0,STARLINK-3086,PAYLOAD,2021-12-23 22:00:00,15.05813201,0.0003276999999999,70.0,209.3436,284.7214,206.6535,-0.04891,-0.00664986,0.0,0 STARLINK-3086,1 49178U 21082BA  21357.91667824 -.00664986  00000-0 -48910-1 0  9997,2 49178  70.0000 209.3436 0003277 284.7214 206.6535 15.05813201  3637,6927.148,95.629,551.283,546.743,0.0
49178.0,STARLINK-3086,PAYLOAD,2021-12-24 14:00:01,15.04877985,0.0003258,70.0001,207.6428,284.7109,218.4508,-0.050056,-0.00663717,0.0,0 STARLINK-3086,1 49178U 21082BA  21358.58334491 -.00663717  00000-0 -50056-1 0  9997,2 49178  70.0001 207.6428 0003258 284.7109 218.4508 15.04877985 17030,6930.017,95.689,554.14,549.624,0.0
49178.0,STARLINK-3086,PAYLOAD,2021-12-24 22:00:00,15.04410329,0.0003326,70.0,206.7933,288.2614,219.953,-0.050731,-0.00664248,0.0,0 STARLINK-3086,1 49178U 21082BA  21358.91667824 -.00664248  00000-0 -50731-1 0  9993,2 49178  70.0000 206.7933 0003326 288.2614 219.9530 15.04410329  3600,6931.453,95.719,555.624,551.013,0.0
49178.0,STARLINK-3086,PAYLOAD,2021-12-25 14:00:01,15.03475547,0.0003244,70.0001,205.0961,284.6836,231.9537,-0.0519679999999999,-0.00663672,0.0,0 STARLINK-3086,1 49178U 21082BA  21359.58334491 -.00663672  00000-0 -51968-1 0  9991,2 49178  70.0001 205.0961 0003244 284.6836 231.9537 15.03475547  3613,6934.326,95.778,558.441,553.942,0.0
49178.0,STARLINK-3086,PAYLOAD,2021-12-25 22:00:00,15.03007628,0.0003271,70.0,204.2485,286.9614,233.0469,-0.052625,-0.00663732,0.0,0 STARLINK-3086,1 49178U 21082BA  21359.91667824 -.00663732  00000-0 -52625-1 0  9995,2 49178  70.0000 204.2485 0003271 286.9614 233.0469 15.03007628 17234,6935.765,95.808,559.899,555.362,0.0
49178.0,STARLINK-3086,PAYLOAD,2021-12-26 14:00:01,15.0203418,0.000333,70.0001,202.5553,287.6354,237.4396,-0.045798,-0.00562973,0.0,0 STARLINK-3086,1 49178U 21082BA  21360.58334491 -.00562973  00000-0 -45798-1 0  9999,2 49178  70.0001 202.5553 0003330 287.6354 237.4396 15.02034180  3613,6938.762,95.87,562.937,558.316,0.0
49178.0,STARLINK-3086,PAYLOAD,2021-12-26 22:00:00,15.01570657,0.0003337,70.0001,201.71,288.3275,238.431,-0.00030379,-4.038e-05,0.0,0 STARLINK-3086,1 49178U 21082BA  21360.91667824 -.00004038  00000-0 -30379-3 0  9999,2 49178  70.0001 201.7100 0003337 288.3275 238.4310 15.01570657 17388,6940.189,95.9,564.37,559.739,0.0
49178.0,STARLINK-3086,PAYLOAD,2021-12-27 14:00:01,15.01577384,0.0003338,69.9965,200.027,278.0699,251.416,-0.00028571,-3.804e-05,0.0,0 STARLINK-3086,1 49178U 21082BA  21361.58334491 -.00003804  00000-0 -28571-3 0  9995,2 49178  69.9965 200.0270 0003338 278.0699 251.4160 15.01577384  3614,6940.169,95.899,564.35,559.717,0.0
49178.0,STARLINK-3086,PAYLOAD,2021-12-27 22:00:00,15.01557337,0.0003455,69.9964,199.182,283.8639,247.0098,0.0020249,0.00026285,0.0,0 STARLINK-3086,1 49178U 21082BA  21361.91667824  .00026285  00000-0  20249-2 0  9990,2 49178  69.9964 199.1820 0003455 283.8639 247.0098 15.01557337  3617,6940.23,95.9,564.493,559.698,0.0
